QZS-1R                  
1 49336U 21096A   24056.43767330 -.00000261  00000+0  00000+0 0  9991
2 49336  35.7091  92.2415 0747656 269.1615  82.9639  1.00299142  8553
